OBJECT_NAME,OBJECT_ID,EPOCH,MEAN_MOTION,ECCENTRICITY,INCLINATION,RA_OF_ASC_NODE,ARG_OF_PERICENTER,MEAN_ANOMALY,EPHEMERIS_TYPE,CLASSIFICATION_TYPE,NORAD_CAT_ID,ELEMENT_SET_NO,REV_AT_EPOCH,BSTAR,MEAN_MOTION_DOT,MEAN_MOTION_DDOT
STARLINK-37998,2026-145C,2026-07-05T12:00:02.999808,15.75116458,.00014726,97.2853,32.8697,72.2991,195.6674,0,U,69679,999,287,.71209234E-3,.107084E-2,0
STARLINK-37994,2026-145D,2026-07-05T14:00:03.000384,15.75128465,.00015256,97.2848,32.9546,69.4378,302.7408,0,U,69680,999,288,.68711058E-3,.103331E-2,0
STARLINK-37992,2026-145E,2026-07-05T12:00:02.999808,15.75063216,.00013646,97.2850,32.8670,78.0267,183.9395,0,U,69681,999,287,.1867263E-2,.286361E-2,0
STARLINK-37997,2026-145F,2026-07-05T14:00:03.000384,15.75162182,.00013781,97.2850,32.9553,92.4792,285.6971,0,U,69682,999,288,.87141019E-3,.131711E-2,0
STARLINK-37990,2026-145G,2026-07-05T14:00:03.000384,15.75167829,.00014287,97.2847,32.9538,90.3809,285.7857,0,U,69683,999,288,.8183455E-3,.123595E-2,0
STARLINK-37951,2026-145H,2026-07-05T12:00:02.999808,15.75016164,.00019851,97.2855,32.8705,93.3733,176.6452,0,U,69684,999,287,.15795002E-2,.24041E-2,0
STARLINK-37957,2026-145J,2026-07-05T12:00:02.999808,15.75039979,.00014544,97.2850,32.8730,84.3237,191.6609,0,U,69685,999,287,.20020456E-2,.307502E-2,0
STARLINK-37968,2026-145K,2026-07-05T12:00:02.999808,15.75123705,.00014509,97.2858,32.8881,86.8867,223.0905,0,U,69686,999,287,.7718614E-3,.116244E-2,0
STARLINK-37977,2026-145L,2026-07-05T14:00:03.000384,15.75155763,.00018693,97.2855,32.9762,152.1067,274.0919,0,U,69687,999,288,.38661491E-3,.57844E-3,0
STARLINK-37908,2026-145M,2026-07-05T14:00:03.000384,15.75139187,.00009321,97.2858,32.9822,134.2884,303.8846,0,U,69688,999,288,.6218781E-3,.93441E-3,0
STARLINK-37979,2026-145N,2026-07-05T14:00:03.000384,15.75145310,.00014042,97.2857,32.9823,88.0302,352.1630,0,U,69689,999,288,.75619498E-3,.113958E-2,0
STARLINK-37940,2026-145P,2026-07-05T14:00:03.000384,15.75137490,.00022432,97.2856,32.9852,123.0658,323.1292,0,U,69690,999,288,.77001572E-3,.116039E-2,0
STARLINK-37961,2026-145Q,2026-07-05T12:00:02.999808,15.75099087,.0001374,97.2858,32.9058,107.4195,244.6166,0,U,69691,999,287,.73864317E-3,.111049E-2,0
STARLINK-37787,2026-145R,2026-07-05T12:00:02.999808,15.75085943,.00009422,97.2855,32.9106,81.8895,282.1861,0,U,69692,999,287,.10850304E-2,.164116E-2,0
STARLINK-37962,2026-145S,2026-07-05T12:00:02.999808,15.75156728,.00017891,97.2857,32.9154,83.9362,290.1130,0,U,69693,999,287,.751948E-3,.113368E-2,0
STARLINK-37953,2026-145T,2026-07-05T12:00:02.999808,15.75078482,.00015923,97.2855,32.9084,117.0051,240.9651,0,U,69694,999,287,.10387888E-2,.156935E-2,0
STARLINK-37926,2026-145U,2026-07-05T14:00:03.000384,15.75159384,.00013723,97.2856,32.9978,104.5419,9.6522,0,U,69695,999,288,.38538632E-3,.57666E-3,0
STARLINK-37959,2026-145V,2026-07-05T12:00:02.999808,15.75112409,.00010961,97.2856,32.9119,88.1343,279.9166,0,U,69696,999,287,.64216523E-3,.96416E-3,0
STARLINK-37976,2026-145W,2026-07-05T12:00:02.999808,15.75204219,.00008939,97.2856,32.9189,88.7900,295.2495,0,U,69697,999,287,-.33573479E-3,-.49943E-3,0
STARLINK-37912,2026-145X,2026-07-05T12:00:02.999808,15.75095298,.00010685,97.2857,32.9222,88.3871,301.6726,0,U,69698,999,287,.11026399E-2,.166904E-2,0
STARLINK-37974,2026-145Y,2026-07-05T14:00:03.000384,15.75159279,.00012149,97.2855,33.0108,80.8525,65.4328,0,U,69699,999,288,.21678488E-3,.32284E-3,0
STARLINK-37955,2026-145Z,2026-07-05T12:00:02.999808,15.75157350,.00011743,97.2854,32.9300,45.0503,2.9917,0,U,69700,999,287,.16470096E-3,.24472E-3,0
STRIX-8,2026-146A,2026-07-05T03:03:30.911040,15.04372169,.0008767,41.9893,68.8620,318.4582,41.5578,0,U,69701,999,126,.58111E-3,.8072E-4,0
STARLINK-38055,2026-147A,2026-07-05T12:00:02.999808,15.80982045,.00009665,97.2831,222.3236,107.9630,342.4989,0,U,69704,999,218,-.12085207E-2,-.22742E-2,0
STARLINK-37898,2026-147B,2026-07-05T12:00:02.999808,15.81709355,.00008979,97.2832,222.3260,98.6525,356.0444,0,U,69705,999,218,-.61925768E-2,-.1110165E-1,0
STARLINK-37970,2026-147C,2026-07-05T12:00:02.999808,15.82286197,.00014172,97.2832,222.3273,78.0554,20.5159,0,U,69706,999,218,-.98757784E-2,-.1748952E-1,0
STARLINK-37975,2026-147D,2026-07-05T14:00:03.000384,15.82133389,.00014198,97.2833,222.4177,94.6793,122.1940,0,U,69707,999,220,-.88579383E-2,-.1581666E-1,0
STARLINK-37972,2026-147E,2026-07-05T14:00:03.000384,15.82578458,.00013523,97.2836,222.4192,88.2528,132.4804,0,U,69708,999,220,-.10777043E-1,-.1951278E-1,0
