STARLINK-37998          
1 69679U 26145C   26186.50003472  .00107084  00000+0  71209-3 0  9990
2 69679  97.2853  32.8697 0001472  72.2991 195.6674 15.75116458  2870
STARLINK-37994          
1 69680U 26145D   26186.58336806  .00103331  00000+0  68711-3 0  9995
2 69680  97.2848  32.9546 0001525  69.4378 302.7408 15.75128465  2884
STARLINK-37992          
1 69681U 26145E   26186.50003472  .00286361  00000+0  18673-2 0  9994
2 69681  97.2850  32.8670 0001364  78.0267 183.9395 15.75063216  2874
STARLINK-37997          
1 69682U 26145F   26186.58336806  .00131711  00000+0  87141-3 0  9998
2 69682  97.2850  32.9553 0001378  92.4792 285.6971 15.75162182  2887
STARLINK-37990          
1 69683U 26145G   26186.58336806  .00123595  00000+0  81835-3 0  9994
2 69683  97.2847  32.9538 0001428  90.3809 285.7857 15.75167829  2886
STARLINK-37951          
1 69684U 26145H   26186.50003472  .00240410  00000+0  15795-2 0  9994
2 69684  97.2855  32.8705 0001985  93.3733 176.6452 15.75016164  2871
STARLINK-37957          
1 69685U 26145J   26186.50003472  .00307502  00000+0  20020-2 0  9998
2 69685  97.2850  32.8730 0001454  84.3237 191.6609 15.75039979  2875
STARLINK-37968          
1 69686U 26145K   26186.50003472  .00116244  00000+0  77186-3 0  9996
2 69686  97.2858  32.8881 0001450  86.8867 223.0905 15.75123705  2873
STARLINK-37977          
1 69687U 26145L   26186.58336806  .00057844  00000+0  38661-3 0  9990
2 69687  97.2855  32.9762 0001869 152.1067 274.0919 15.75155763  2884
STARLINK-37908          
1 69688U 26145M   26186.58336806  .00093441  00000+0  62188-3 0  9995
2 69688  97.2858  32.9822 0000932 134.2884 303.8846 15.75139187  2885
STARLINK-37979          
1 69689U 26145N   26186.58336806  .00113958  00000+0  75619-3 0  9995
2 69689  97.2857  32.9823 0001404  88.0302 352.1630 15.75145310  2885
STARLINK-37940          
1 69690U 26145P   26186.58336806  .00116039  00000+0  77002-3 0  9998
2 69690  97.2856  32.9852 0002243 123.0658 323.1292 15.75137490  2886
STARLINK-37961          
1 69691U 26145Q   26186.50003472  .00111049  00000+0  73864-3 0  9999
2 69691  97.2858  32.9058 0001374 107.4195 244.6166 15.75099087  2878
STARLINK-37787          
1 69692U 26145R   26186.50003472  .00164116  00000+0  10850-2 0  9998
2 69692  97.2855  32.9106 0000942  81.8895 282.1861 15.75085943  2877
STARLINK-37962          
1 69693U 26145S   26186.50003472  .00113368  00000+0  75195-3 0  9996
2 69693  97.2857  32.9154 0001789  83.9362 290.1130 15.75156728  2873
STARLINK-37953          
1 69694U 26145T   26186.50003472  .00156935  00000+0  10388-2 0  9996
2 69694  97.2855  32.9084 0001592 117.0051 240.9651 15.75078482  2871
STARLINK-37926          
1 69695U 26145U   26186.58336806  .00057666  00000+0  38539-3 0  9995
2 69695  97.2856  32.9978 0001372 104.5419   9.6522 15.75159384  2889
STARLINK-37959          
1 69696U 26145V   26186.50003472  .00096416  00000+0  64217-3 0  9996
2 69696  97.2856  32.9119 0001096  88.1343 279.9166 15.75112409  2875
STARLINK-37976          
1 69697U 26145W   26186.50003472 -.00049943  00000+0 -33573-3 0  9993
2 69697  97.2856  32.9189 0000893  88.7900 295.2495 15.75204219  2879
STARLINK-37912          
1 69698U 26145X   26186.50003472  .00166904  00000+0  11026-2 0  9997
2 69698  97.2857  32.9222 0001068  88.3871 301.6726 15.75095298  2871
STARLINK-37974          
1 69699U 26145Y   26186.58336806  .00032284  00000+0  21678-3 0  9994
2 69699  97.2855  33.0108 0001214  80.8525  65.4328 15.75159279  2885
STARLINK-37955          
1 69700U 26145Z   26186.50003472  .00024472  00000+0  16470-3 0  9993
2 69700  97.2854  32.9300 0001174  45.0503   2.9917 15.75157350  2870
STRIX-8                 
1 69701U 26146A   26186.12744110  .00008072  00000+0  58111-3 0  9990
2 69701  41.9893  68.8620 0008766 318.4582  41.5578 15.04372169  1264
STARLINK-38055          
1 69704U 26147A   26186.50003472 -.00227420  00000+0 -12085-2 0  9996
2 69704  97.2831 222.3236 0000966 107.9630 342.4989 15.80982045  2187
STARLINK-37898          
1 69705U 26147B   26186.50003472 -.01110165  00000+0 -61926-2 0  9993
2 69705  97.2832 222.3260 0000897  98.6525 356.0444 15.81709355  2187
STARLINK-37970          
1 69706U 26147C   26186.50003472 -.01748952  00000+0 -98758-2 0  9998
2 69706  97.2832 222.3273 0001417  78.0554  20.5159 15.82286197  2186
STARLINK-37975          
1 69707U 26147D   26186.58336806 -.01581666  00000+0 -88579-2 0  9994
2 69707  97.2833 222.4177 0001419  94.6793 122.1940 15.82133389  2207
STARLINK-37972          
1 69708U 26147E   26186.58336806 -.01951278  00000+0 -10777-1 0  9999
2 69708  97.2836 222.4192 0001352  88.2528 132.4804 15.82578458  2202
